[{"OBJECT_NAME":"UNISAT-6","OBJECT_ID":"2014-033C","EPOCH":"2026-04-05T07:22:43.412160","MEAN_MOTION":14.87831808,"ECCENTRICITY":0.0044147,"INCLINATION":97.7782,"RA_OF_ASC_NODE":249.3613,"ARG_OF_PERICENTER":309.711,"MEAN_ANOMALY":50.0218,"EPHEMERIS_TYPE":0,"CLASSIFICATION_TYPE":"U","NORAD_CAT_ID":40012,"ELEMENT_SET_NO":999,"REV_AT_EPOCH":63532,"BSTAR":0.00052166,"MEAN_MOTION_DOT":4.798e-5,"MEAN_MOTION_DDOT":0},{"OBJECT_NAME":"DUCHIFAT-1","OBJECT_ID":"2014-033M","EPOCH":"2026-04-05T20:25:41.070720","MEAN_MOTION":15.53645575,"ECCENTRICITY":0.000308,"INCLINATION":98.0568,"RA_OF_ASC_NODE":145.5501,"ARG_OF_PERICENTER":338.6958,"MEAN_ANOMALY":21.4165,"EPHEMERIS_TYPE":0,"CLASSIFICATION_TYPE":"U","NORAD_CAT_ID":40021,"ELEMENT_SET_NO":999,"REV_AT_EPOCH":64448,"BSTAR":0.0011705,"MEAN_MOTION_DOT":0.00075209,"MEAN_MOTION_DDOT":0},{"OBJECT_NAME":"QB50P1","OBJECT_ID":"2014-033R","EPOCH":"2026-04-05T18:10:47.670816","MEAN_MOTION":15.17127982,"ECCENTRICITY":0.0010591,"INCLINATION":98.1004,"RA_OF_ASC_NODE":101.8827,"ARG_OF_PERICENTER":110.856,"MEAN_ANOMALY":249.3806,"EPHEMERIS_TYPE":0,"CLASSIFICATION_TYPE":"U","NORAD_CAT_ID":40025,"ELEMENT_SET_NO":999,"REV_AT_EPOCH":64204,"BSTAR":0.00063403,"MEAN_MOTION_DOT":0.00012528,"MEAN_MOTION_DDOT":0},{"OBJECT_NAME":"LILACSAT-2","OBJECT_ID":"2015-049K","EPOCH":"2026-04-05T20:22:22.014624","MEAN_MOTION":15.49121018,"ECCENTRICITY":0.0008528,"INCLINATION":97.4751,"RA_OF_ASC_NODE":130.0297,"ARG_OF_PERICENTER":143.9466,"MEAN_ANOMALY":216.2362,"EPHEMERIS_TYPE":0,"CLASSIFICATION_TYPE":"U","NORAD_CAT_ID":40908,"ELEMENT_SET_NO":999,"REV_AT_EPOCH":58454,"BSTAR":0.00041728,"MEAN_MOTION_DOT":0.00022643,"MEAN_MOTION_DDOT":0},{"OBJECT_NAME":"FOX-1A (AO-85)","OBJECT_ID":"2015-058D","EPOCH":"2026-04-05T13:34:43.341024","MEAN_MOTION":14.9054743,"ECCENTRICITY":0.0128307,"INCLINATION":64.7743,"RA_OF_ASC_NODE":144.5904,"ARG_OF_PERICENTER":85.1207,"MEAN_ANOMALY":276.454,"EPHEMERIS_TYPE":0,"CLASSIFICATION_TYPE":"U","NORAD_CAT_ID":40967,"ELEMENT_SET_NO":999,"REV_AT_EPOCH":10274,"BSTAR":0.00028427,"MEAN_MOTION_DOT":3.083e-5,"MEAN_MOTION_DDOT":0},{"OBJECT_NAME":"CAS-2T & KS-1Q","OBJECT_ID":"2016-066G","EPOCH":"2026-04-05T17:17:55.550112","MEAN_MOTION":14.44542184,"ECCENTRICITY":0.034205,"INCLINATION":98.3848,"RA_OF_ASC_NODE":172.2709,"ARG_OF_PERICENTER":349.6384,"MEAN_ANOMALY":9.7876,"EPHEMERIS_TYPE":0,"CLASSIFICATION_TYPE":"U","NORAD_CAT_ID":41847,"ELEMENT_SET_NO":999,"REV_AT_EPOCH":49433,"BSTAR":0.00018813,"MEAN_MOTION_DOT":1.274e-5,"MEAN_MOTION_DDOT":0},{"OBJECT_NAME":"RADFXSAT (FOX-1B)","OBJECT_ID":"2017-073E","EPOCH":"2026-04-05T21:01:58.563264","MEAN_MOTION":15.11462187,"ECCENTRICITY":0.0152949,"INCLINATION":97.4802,"RA_OF_ASC_NODE":324.6035,"ARG_OF_PERICENTER":217.5891,"MEAN_ANOMALY":141.4571,"EPHEMERIS_TYPE":0,"CLASSIFICATION_TYPE":"U","NORAD_CAT_ID":43017,"ELEMENT_SET_NO":999,"REV_AT_EPOCH":45446,"BSTAR":0.0004213,"MEAN_MOTION_DOT":9.393e-5,"MEAN_MOTION_DDOT":0},{"OBJECT_NAME":"DIWATA-2B","OBJECT_ID":"2018-084H","EPOCH":"2026-04-05T19:19:16.663008","MEAN_MOTION":15.00111147,"ECCENTRICITY":0.0013868,"INCLINATION":98.1038,"RA_OF_ASC_NODE":288.9568,"ARG_OF_PERICENTER":47.8715,"MEAN_ANOMALY":312.3683,"EPHEMERIS_TYPE":0,"CLASSIFICATION_TYPE":"U","NORAD_CAT_ID":43678,"ELEMENT_SET_NO":999,"REV_AT_EPOCH":40536,"BSTAR":0.00019387,"MEAN_MOTION_DOT":2.357e-5,"MEAN_MOTION_DDOT":0},{"OBJECT_NAME":"ES'HAIL 2","OBJECT_ID":"2018-090A","EPOCH":"2026-04-05T19:42:48.579840","MEAN_MOTION":1.00270074,"ECCENTRICITY":0.0001259,"INCLINATION":0.0012,"RA_OF_ASC_NODE":173.6902,"ARG_OF_PERICENTER":218.4662,"MEAN_ANOMALY":123.4825,"EPHEMERIS_TYPE":0,"CLASSIFICATION_TYPE":"U","NORAD_CAT_ID":43700,"ELEMENT_SET_NO":999,"REV_AT_EPOCH":2695,"BSTAR":0,"MEAN_MOTION_DOT":1.46e-6,"MEAN_MOTION_DDOT":0},{"OBJECT_NAME":"FOX-1CLIFF (AO-95)","OBJECT_ID":"2018-099N","EPOCH":"2026-04-05T14:46:08.851008","MEAN_MOTION":15.25181511,"ECCENTRICITY":0.0007818,"INCLINATION":97.4449,"RA_OF_ASC_NODE":156.1924,"ARG_OF_PERICENTER":236.0283,"MEAN_ANOMALY":124.0212,"EPHEMERIS_TYPE":0,"CLASSIFICATION_TYPE":"U","NORAD_CAT_ID":43770,"ELEMENT_SET_NO":999,"REV_AT_EPOCH":40215,"BSTAR":0.0005632,"MEAN_MOTION_DOT":0.00014083,"MEAN_MOTION_DDOT":0},{"OBJECT_NAME":"ITASAT","OBJECT_ID":"2018-099AE","EPOCH":"2026-04-05T16:06:15.009120","MEAN_MOTION":15.18145457,"ECCENTRICITY":0.0011391,"INCLINATION":97.4106,"RA_OF_ASC_NODE":148.6514,"ARG_OF_PERICENTER":241.1476,"MEAN_ANOMALY":118.8615,"EPHEMERIS_TYPE":0,"CLASSIFICATION_TYPE":"U","NORAD_CAT_ID":43786,"ELEMENT_SET_NO":999,"REV_AT_EPOCH":40190,"BSTAR":0.00043378,"MEAN_MOTION_DOT":8.808e-5,"MEAN_MOTION_DDOT":0},{"OBJECT_NAME":"JY1SAT (JO-97)","OBJECT_ID":"2018-099AX","EPOCH":"2026-04-05T16:23:16.496448","MEAN_MOTION":15.31410821,"ECCENTRICITY":0.0006845,"INCLINATION":97.4194,"RA_OF_ASC_NODE":158.3698,"ARG_OF_PERICENTER":157.9734,"MEAN_ANOMALY":202.1802,"EPHEMERIS_TYPE":0,"CLASSIFICATION_TYPE":"U","NORAD_CAT_ID":43803,"ELEMENT_SET_NO":999,"REV_AT_EPOCH":40252,"BSTAR":0.00069745,"MEAN_MOTION_DOT":0.00021129,"MEAN_MOTION_DDOT":0},{"OBJECT_NAME":"UWE-4","OBJECT_ID":"2018-111E","EPOCH":"2026-04-05T18:06:39.191328","MEAN_MOTION":15.41947757,"ECCENTRICITY":0.0006953,"INCLINATION":97.5856,"RA_OF_ASC_NODE":21.063,"ARG_OF_PERICENTER":208.5775,"MEAN_ANOMALY":151.5091,"EPHEMERIS_TYPE":0,"CLASSIFICATION_TYPE":"U","NORAD_CAT_ID":43880,"ELEMENT_SET_NO":999,"REV_AT_EPOCH":39960,"BSTAR":0.00091918,"MEAN_MOTION_DOT":0.00039201,"MEAN_MOTION_DDOT":0},{"OBJECT_NAME":"TIANYAN 01","OBJECT_ID":"2019-093C","EPOCH":"2026-04-05T19:34:04.465344","MEAN_MOTION":14.8640491,"ECCENTRICITY":0.0012827,"INCLINATION":97.7566,"RA_OF_ASC_NODE":169.8054,"ARG_OF_PERICENTER":330.7735,"MEAN_ANOMALY":29.2762,"EPHEMERIS_TYPE":0,"CLASSIFICATION_TYPE":"U","NORAD_CAT_ID":44881,"ELEMENT_SET_NO":999,"REV_AT_EPOCH":34066,"BSTAR":0.00019203,"MEAN_MOTION_DOT":1.643e-5,"MEAN_MOTION_DDOT":0},{"OBJECT_NAME":"RS-44 & BREEZE-KM R/B","OBJECT_ID":"2019-096E","EPOCH":"2026-04-05T18:23:12.938208","MEAN_MOTION":12.79747816,"ECCENTRICITY":0.021675,"INCLINATION":82.5257,"RA_OF_ASC_NODE":27.8239,"ARG_OF_PERICENTER":313.9631,"MEAN_ANOMALY":44.3767,"EPHEMERIS_TYPE":0,"CLASSIFICATION_TYPE":"U","NORAD_CAT_ID":44909,"ELEMENT_SET_NO":999,"REV_AT_EPOCH":29308,"BSTAR":3.478e-5,"MEAN_MOTION_DOT":1.8e-7,"MEAN_MOTION_DDOT":0},{"OBJECT_NAME":"SALSAT","OBJECT_ID":"2020-068K","EPOCH":"2026-04-05T13:55:30.104256","MEAN_MOTION":15.28738181,"ECCENTRICITY":0.0009619,"INCLINATION":97.8868,"RA_OF_ASC_NODE":94.287,"ARG_OF_PERICENTER":186.5581,"MEAN_ANOMALY":173.5533,"EPHEMERIS_TYPE":0,"CLASSIFICATION_TYPE":"U","NORAD_CAT_ID":46495,"ELEMENT_SET_NO":999,"REV_AT_EPOCH":30426,"BSTAR":0.00035593,"MEAN_MOTION_DOT":9.877e-5,"MEAN_MOTION_DDOT":0},{"OBJECT_NAME":"XW-3 (CAS-9)","OBJECT_ID":"2021-131B","EPOCH":"2026-04-05T20:33:52.051680","MEAN_MOTION":14.41288809,"ECCENTRICITY":0.0003303,"INCLINATION":98.495,"RA_OF_ASC_NODE":188.6542,"ARG_OF_PERICENTER":330.7891,"MEAN_ANOMALY":29.3113,"EPHEMERIS_TYPE":0,"CLASSIFICATION_TYPE":"U","NORAD_CAT_ID":50466,"ELEMENT_SET_NO":999,"REV_AT_EPOCH":22469,"BSTAR":0.00029635,"MEAN_MOTION_DOT":9.14e-6,"MEAN_MOTION_DDOT":0}]
