UNISAT-6                
1 40012U 14033C   26095.30744690  .00004798  00000+0  52166-3 0  9993
2 40012  97.7782 249.3613 0044147 309.7110  50.0218 14.87831808635321
DUCHIFAT-1              
1 40021U 14033M   26095.85116980  .00075209  00000+0  11705-2 0  9996
2 40021  98.0568 145.5501 0003080 338.6958  21.4165 15.53645575644480
QB50P1                  
1 40025U 14033R   26095.75749619  .00012528  00000+0  63403-3 0  9998
2 40025  98.1004 101.8827 0010591 110.8560 249.3806 15.17127982642040
LILACSAT-2              
1 40908U 15049K   26095.84886591  .00022643  00000+0  41728-3 0  9992
2 40908  97.4751 130.0297 0008528 143.9466 216.2362 15.49121018584544
FOX-1A (AO-85)          
1 40967U 15058D   26095.56577941  .00003083  00000+0  28427-3 0  9990
2 40967  64.7743 144.5904 0128307  85.1207 276.4540 14.90547430102749
CAS-2T & KS-1Q          
1 41847U 16066G   26095.72078183  .00001274  00000+0  18813-3 0  9998
2 41847  98.3848 172.2709 0342050 349.6384   9.7876 14.44542184494332
RADFXSAT (FOX-1B)       
1 43017U 17073E   26095.87637226  .00009393  00000+0  42130-3 0  9992
2 43017  97.4802 324.6035 0152949 217.5891 141.4571 15.11462187454465
DIWATA-2B               
1 43678U 18084H   26095.80505397  .00002357  00000+0  19387-3 0  9995
2 43678  98.1038 288.9568 0013868  47.8715 312.3683 15.00111147405368
ES'HAIL 2               
1 43700U 18090A   26095.82139560  .00000146  00000+0  00000+0 0  9997
2 43700   0.0012 173.6902 0001259 218.4662 123.4825  1.00270074 26951
FOX-1CLIFF (AO-95)      
1 43770U 18099N   26095.61538022  .00014083  00000+0  56320-3 0  9991
2 43770  97.4449 156.1924 0007818 236.0283 124.0212 15.25181511402150
ITASAT                  
1 43786U 18099AE  26095.67100705  .00008808  00000+0  43378-3 0  9994
2 43786  97.4106 148.6514 0011391 241.1476 118.8615 15.18145457401901
JY1SAT (JO-97)          
1 43803U 18099AX  26095.68282982  .00021129  00000+0  69745-3 0  9990
2 43803  97.4194 158.3698 0006845 157.9734 202.1802 15.31410821402527
UWE-4                   
1 43880U 18111E   26095.75462027  .00039201  00000+0  91918-3 0  9995
2 43880  97.5856  21.0630 0006953 208.5775 151.5091 15.41947757399603
TIANYAN 01              
1 44881U 19093C   26095.81532946  .00001643  00000+0  19203-3 0  9998
2 44881  97.7566 169.8054 0012827 330.7735  29.2762 14.86404910340662
RS-44 & BREEZE-KM R/B   
1 44909U 19096E   26095.76612197  .00000018  00000+0  34780-4 0  9996
2 44909  82.5257  27.8239 0216750 313.9631  44.3767 12.79747816293080
SALSAT                  
1 46495U 20068K   26095.58020954  .00009877  00000+0  35593-3 0  9997
2 46495  97.8868  94.2870 0009619 186.5581 173.5533 15.28738181304261
XW-3 (CAS-9)            
1 50466U 21131B   26095.85685245  .00000914  00000+0  29635-3 0  9995
2 50466  98.4950 188.6542 0003303 330.7891  29.3113 14.41288809224699
